<?xml version="1.0" encoding="UTF-8"?>
<ndm xmlns:xsi="http://www.w3.org/2001/XMLSchema-instance" xsi:noNamespaceSchemaLocation="https://sanaregistry.org/r/ndmxml_unqualified/ndmxml-2.0.0-master-2.0.xsd">
<omm id="CCSDS_OMM_VERS" version="2.0">
<header><CREATION_DATE/><ORIGINATOR/></header><body><segment><metadata><OBJECT_NAME>KUIPER-00157</OBJECT_NAME><OBJECT_ID>2025-228Z</OBJECT_ID><CENTER_NAME>EARTH</CENTER_NAME><REF_FRAME>TEME</REF_FRAME><TIME_SYSTEM>UTC</TIME_SYSTEM><MEAN_ELEMENT_THEORY>SGP4</MEAN_ELEMENT_THEORY></metadata><data><meanElements><EPOCH>2026-01-24T06:00:02.000160</EPOCH><MEAN_MOTION>15.09988931</MEAN_MOTION><ECCENTRICITY>.0003743</ECCENTRICITY><INCLINATION>51.8870</INCLINATION><RA_OF_ASC_NODE>177.0576</RA_OF_ASC_NODE><ARG_OF_PERICENTER>207.4545</ARG_OF_PERICENTER><MEAN_ANOMALY>275.3428</MEAN_ANOMALY></meanElements><tleParameters><EPHEMERIS_TYPE>0</EPHEMERIS_TYPE><CLASSIFICATION_TYPE>U</CLASSIFICATION_TYPE><NORAD_CAT_ID>65970</NORAD_CAT_ID><ELEMENT_SET_NO>999</ELEMENT_SET_NO><REV_AT_EPOCH>576</REV_AT_EPOCH><BSTAR>.27043561E-2</BSTAR><MEAN_MOTION_DOT>.44446E-3</MEAN_MOTION_DOT><MEAN_MOTION_DDOT>0</MEAN_MOTION_DDOT></tleParameters></data></segment></body></omm>
<omm id="CCSDS_OMM_VERS" version="2.0">
<header><CREATION_DATE/><ORIGINATOR/></header><body><segment><metadata><OBJECT_NAME>KUIPER-00144</OBJECT_NAME><OBJECT_ID>2025-301A</OBJECT_ID><CENTER_NAME>EARTH</CENTER_NAME><REF_FRAME>TEME</REF_FRAME><TIME_SYSTEM>UTC</TIME_SYSTEM><MEAN_ELEMENT_THEORY>SGP4</MEAN_ELEMENT_THEORY></metadata><data><meanElements><EPOCH>2026-01-24T00:01:12.522432</EPOCH><MEAN_MOTION>15.36658422</MEAN_MOTION><ECCENTRICITY>.0006575</ECCENTRICITY><INCLINATION>51.8698</INCLINATION><RA_OF_ASC_NODE>281.2315</RA_OF_ASC_NODE><ARG_OF_PERICENTER>220.3340</ARG_OF_PERICENTER><MEAN_ANOMALY>139.7159</MEAN_ANOMALY></meanElements><tleParameters><EPHEMERIS_TYPE>0</EPHEMERIS_TYPE><CLASSIFICATION_TYPE>U</CLASSIFICATION_TYPE><NORAD_CAT_ID>67133</NORAD_CAT_ID><ELEMENT_SET_NO>999</ELEMENT_SET_NO><REV_AT_EPOCH>686</REV_AT_EPOCH><BSTAR>.1346E-2</BSTAR><MEAN_MOTION_DOT>.48891E-3</MEAN_MOTION_DOT><MEAN_MOTION_DDOT>0</MEAN_MOTION_DDOT></tleParameters></data></segment></body></omm>
<omm id="CCSDS_OMM_VERS" version="2.0">
<header><CREATION_DATE/><ORIGINATOR/></header><body><segment><metadata><OBJECT_NAME>KUIPER-00164</OBJECT_NAME><OBJECT_ID>2025-301B</OBJECT_ID><CENTER_NAME>EARTH</CENTER_NAME><REF_FRAME>TEME</REF_FRAME><TIME_SYSTEM>UTC</TIME_SYSTEM><MEAN_ELEMENT_THEORY>SGP4</MEAN_ELEMENT_THEORY></metadata><data><meanElements><EPOCH>2026-01-23T17:25:02.561376</EPOCH><MEAN_MOTION>15.37102887</MEAN_MOTION><ECCENTRICITY>.00028689</ECCENTRICITY><INCLINATION>51.8695</INCLINATION><RA_OF_ASC_NODE>282.3969</RA_OF_ASC_NODE><ARG_OF_PERICENTER>186.1862</ARG_OF_PERICENTER><MEAN_ANOMALY>173.9090</MEAN_ANOMALY></meanElements><tleParameters><EPHEMERIS_TYPE>0</EPHEMERIS_TYPE><CLASSIFICATION_TYPE>U</CLASSIFICATION_TYPE><NORAD_CAT_ID>67134</NORAD_CAT_ID><ELEMENT_SET_NO>999</ELEMENT_SET_NO><REV_AT_EPOCH>700</REV_AT_EPOCH><BSTAR>.17488656E-2</BSTAR><MEAN_MOTION_DOT>.64669E-3</MEAN_MOTION_DOT><MEAN_MOTION_DDOT>0</MEAN_MOTION_DDOT></tleParameters></data></segment></body></omm>
<omm id="CCSDS_OMM_VERS" version="2.0">
<header><CREATION_DATE/><ORIGINATOR/></header><body><segment><metadata><OBJECT_NAME>KUIPER-00175</OBJECT_NAME><OBJECT_ID>2025-301C</OBJECT_ID><CENTER_NAME>EARTH</CENTER_NAME><REF_FRAME>TEME</REF_FRAME><TIME_SYSTEM>UTC</TIME_SYSTEM><MEAN_ELEMENT_THEORY>SGP4</MEAN_ELEMENT_THEORY></metadata><data><meanElements><EPOCH>2026-01-23T23:20:40.722720</EPOCH><MEAN_MOTION>15.37562906</MEAN_MOTION><ECCENTRICITY>.0002248</ECCENTRICITY><INCLINATION>51.8736</INCLINATION><RA_OF_ASC_NODE>281.0528</RA_OF_ASC_NODE><ARG_OF_PERICENTER>150.5977</ARG_OF_PERICENTER><MEAN_ANOMALY>209.5137</MEAN_ANOMALY></meanElements><tleParameters><EPHEMERIS_TYPE>0</EPHEMERIS_TYPE><CLASSIFICATION_TYPE>U</CLASSIFICATION_TYPE><NORAD_CAT_ID>67135</NORAD_CAT_ID><ELEMENT_SET_NO>999</ELEMENT_SET_NO><REV_AT_EPOCH>693</REV_AT_EPOCH><BSTAR>.17059E-2</BSTAR><MEAN_MOTION_DOT>.64014E-3</MEAN_MOTION_DOT><MEAN_MOTION_DDOT>0</MEAN_MOTION_DDOT></tleParameters></data></segment></body></omm>
<omm id="CCSDS_OMM_VERS" version="2.0">
<header><CREATION_DATE/><ORIGINATOR/></header><body><segment><metadata><OBJECT_NAME>KUIPER-00179</OBJECT_NAME><OBJECT_ID>2025-301D</OBJECT_ID><CENTER_NAME>EARTH</CENTER_NAME><REF_FRAME>TEME</REF_FRAME><TIME_SYSTEM>UTC</TIME_SYSTEM><MEAN_ELEMENT_THEORY>SGP4</MEAN_ELEMENT_THEORY></metadata><data><meanElements><EPOCH>2026-01-23T23:34:36.780096</EPOCH><MEAN_MOTION>15.37118708</MEAN_MOTION><ECCENTRICITY>.0002881</ECCENTRICITY><INCLINATION>51.8731</INCLINATION><RA_OF_ASC_NODE>281.1184</RA_OF_ASC_NODE><ARG_OF_PERICENTER>170.8412</ARG_OF_PERICENTER><MEAN_ANOMALY>189.2627</MEAN_ANOMALY></meanElements><tleParameters><EPHEMERIS_TYPE>0</EPHEMERIS_TYPE><CLASSIFICATION_TYPE>U</CLASSIFICATION_TYPE><NORAD_CAT_ID>67136</NORAD_CAT_ID><ELEMENT_SET_NO>999</ELEMENT_SET_NO><REV_AT_EPOCH>704</REV_AT_EPOCH><BSTAR>.26225E-2</BSTAR><MEAN_MOTION_DOT>.97644E-3</MEAN_MOTION_DOT><MEAN_MOTION_DDOT>0</MEAN_MOTION_DDOT></tleParameters></data></segment></body></omm>
<omm id="CCSDS_OMM_VERS" version="2.0">
<header><CREATION_DATE/><ORIGINATOR/></header><body><segment><metadata><OBJECT_NAME>KUIPER-00181</OBJECT_NAME><OBJECT_ID>2025-301E</OBJECT_ID><CENTER_NAME>EARTH</CENTER_NAME><REF_FRAME>TEME</REF_FRAME><TIME_SYSTEM>UTC</TIME_SYSTEM><MEAN_ELEMENT_THEORY>SGP4</MEAN_ELEMENT_THEORY></metadata><data><meanElements><EPOCH>2026-01-23T17:10:10.773408</EPOCH><MEAN_MOTION>15.31714112</MEAN_MOTION><ECCENTRICITY>.00112364</ECCENTRICITY><INCLINATION>51.8681</INCLINATION><RA_OF_ASC_NODE>283.0274</RA_OF_ASC_NODE><ARG_OF_PERICENTER>239.8862</ARG_OF_PERICENTER><MEAN_ANOMALY>120.1009</MEAN_ANOMALY></meanElements><tleParameters><EPHEMERIS_TYPE>0</EPHEMERIS_TYPE><CLASSIFICATION_TYPE>U</CLASSIFICATION_TYPE><NORAD_CAT_ID>67137</NORAD_CAT_ID><ELEMENT_SET_NO>999</ELEMENT_SET_NO><REV_AT_EPOCH>697</REV_AT_EPOCH><BSTAR>.14030363E-2</BSTAR><MEAN_MOTION_DOT>.43562E-3</MEAN_MOTION_DOT><MEAN_MOTION_DDOT>0</MEAN_MOTION_DDOT></tleParameters></data></segment></body></omm>
<omm id="CCSDS_OMM_VERS" version="2.0">
<header><CREATION_DATE/><ORIGINATOR/></header><body><segment><metadata><OBJECT_NAME>KUIPER-00183</OBJECT_NAME><OBJECT_ID>2025-301F</OBJECT_ID><CENTER_NAME>EARTH</CENTER_NAME><REF_FRAME>TEME</REF_FRAME><TIME_SYSTEM>UTC</TIME_SYSTEM><MEAN_ELEMENT_THEORY>SGP4</MEAN_ELEMENT_THEORY></metadata><data><meanElements><EPOCH>2026-01-24T06:00:02.000160</EPOCH><MEAN_MOTION>15.35370625</MEAN_MOTION><ECCENTRICITY>.00118513</ECCENTRICITY><INCLINATION>51.8614</INCLINATION><RA_OF_ASC_NODE>280.3873</RA_OF_ASC_NODE><ARG_OF_PERICENTER>243.0806</ARG_OF_PERICENTER><MEAN_ANOMALY>227.8135</MEAN_ANOMALY></meanElements><tleParameters><EPHEMERIS_TYPE>0</EPHEMERIS_TYPE><CLASSIFICATION_TYPE>U</CLASSIFICATION_TYPE><NORAD_CAT_ID>67138</NORAD_CAT_ID><ELEMENT_SET_NO>999</ELEMENT_SET_NO><REV_AT_EPOCH>479</REV_AT_EPOCH><BSTAR>.14481389E-2</BSTAR><MEAN_MOTION_DOT>.50577E-3</MEAN_MOTION_DOT><MEAN_MOTION_DDOT>0</MEAN_MOTION_DDOT></tleParameters></data></segment></body></omm>
<omm id="CCSDS_OMM_VERS" version="2.0">
<header><CREATION_DATE/><ORIGINATOR/></header><body><segment><metadata><OBJECT_NAME>KUIPER-00184</OBJECT_NAME><OBJECT_ID>2025-301G</OBJECT_ID><CENTER_NAME>EARTH</CENTER_NAME><REF_FRAME>TEME</REF_FRAME><TIME_SYSTEM>UTC</TIME_SYSTEM><MEAN_ELEMENT_THEORY>SGP4</MEAN_ELEMENT_THEORY></metadata><data><meanElements><EPOCH>2026-01-22T23:38:33.624096</EPOCH><MEAN_MOTION>15.35582651</MEAN_MOTION><ECCENTRICITY>.0009405</ECCENTRICITY><INCLINATION>51.8637</INCLINATION><RA_OF_ASC_NODE>286.3987</RA_OF_ASC_NODE><ARG_OF_PERICENTER>235.4347</ARG_OF_PERICENTER><MEAN_ANOMALY>124.5752</MEAN_ANOMALY></meanElements><tleParameters><EPHEMERIS_TYPE>0</EPHEMERIS_TYPE><CLASSIFICATION_TYPE>U</CLASSIFICATION_TYPE><NORAD_CAT_ID>67139</NORAD_CAT_ID><ELEMENT_SET_NO>999</ELEMENT_SET_NO><REV_AT_EPOCH>698</REV_AT_EPOCH><BSTAR>.93322094E-3</BSTAR><MEAN_MOTION_DOT>.32574E-3</MEAN_MOTION_DOT><MEAN_MOTION_DDOT>0</MEAN_MOTION_DDOT></tleParameters></data></segment></body></omm>

</ndm>
