KUIPER-00157            
1 65970U 25228Z   26024.25002315  .00044446  00000+0  27044-2 0  9998
2 65970  51.8870 177.0576 0003743 207.4545 275.3428 15.09988931  5767
KUIPER-00144            
1 67133U 25301A   26024.00083938  .00048891  00000+0  13460-2 0  9991
2 67133  51.8698 281.2315 0006575 220.3340 139.7159 15.36658422  6865
KUIPER-00164            
1 67134U 25301B   26023.72572409  .00064669  00000+0  17489-2 0  9992
2 67134  51.8695 282.3969 0002868 186.1862 173.9090 15.37102887  7000
KUIPER-00175            
1 67135U 25301C   26023.97269355  .00064014  00000+0  17059-2 0  9990
2 67135  51.8736 281.0528 0002248 150.5977 209.5137 15.37562906  6939
KUIPER-00179            
1 67136U 25301D   26023.98237014  .00097644  00000+0  26225-2 0  9999
2 67136  51.8731 281.1184 0002881 170.8412 189.2627 15.37118708  7044
KUIPER-00181            
1 67137U 25301E   26023.71540247  .00043562  00000+0  14030-2 0  9997
2 67137  51.8681 283.0274 0011236 239.8862 120.1009 15.31714112  6973
KUIPER-00183            
1 67138U 25301F   26024.25002315  .00050577  00000+0  14481-2 0  9991
2 67138  51.8614 280.3873 0011851 243.0806 227.8135 15.35370625  4797
KUIPER-00184            
1 67139U 25301G   26022.98511139  .00032574  00000+0  93322-3 0  9998
2 67139  51.8637 286.3987 0009405 235.4347 124.5752 15.35582651  6987
